SMDC ONE 1.2            
1 38759U 12048B   26068.59359052  .00013943  00000+0  57078-3 0  9996
2 38759  64.6579 143.2061 0110458 207.1808 152.3511 15.19069434101016
STARLINK-34862          
1 65180U 25175G   26068.65777207 -.00002368  00000+0 -15995-3 0  9995
2 65180  97.6019 302.5954 0003366 105.3218 254.8381 15.05643312 32635
